{
  "norad_id": 57766,
  "name": "WILDFIRE 10",
  "history": [
    {
      "epoch": "2026-03-28T23:09:58.562496Z",
      "apogee_km": 948.2033604724884,
      "perigee_km": 939.9946945514866,
      "latitude_deg": -1.1526065462730759e-05,
      "longitude_deg": -89.36995296170407,
      "height_km": 950.4232245754971,
      "semi_major_axis_km": 7322.236027511987,
      "eccentricity": 0.00056053,
      "inclination_deg": 80.9988,
      "raan_deg": 84.5022,
      "arg_perigee_deg": 212.4906,
      "mean_anomaly_deg": 147.5906,
      "mean_motion_rev_day": 13.85597771
    },
    {
      "epoch": "2026-03-29T02:37:56.464320Z",
      "apogee_km": 948.2089739192379,
      "perigee_km": 939.9890317824375,
      "latitude_deg": -7.308798920809417e-05,
      "longitude_deg": -141.64226722554568,
      "height_km": 950.4444333505179,
      "semi_major_axis_km": 7322.236002850837,
      "eccentricity": 0.0005613,
      "inclination_deg": 80.9989,
      "raan_deg": 84.3635,
      "arg_perigee_deg": 212.0599,
      "mean_anomaly_deg": 148.0216,
      "mean_motion_rev_day": 13.85597778
    },
    {
      "epoch": "2026-03-30T01:09:42.828768Z",
      "apogee_km": 948.2251453107892,
      "perigee_km": 939.971521642894,
      "latitude_deg": 1.590161817727765e-05,
      "longitude_deg": -121.41219345796367,
      "height_km": 950.5617924495447,
      "semi_major_axis_km": 7322.235333476841,
      "eccentricity": 0.0005636,
      "inclination_deg": 80.999,
      "raan_deg": 83.462,
      "arg_perigee_deg": 209.2273,
      "mean_anomaly_deg": 150.8569,
      "mean_motion_rev_day": 13.85597968
    },
    {
      "epoch": "2026-03-30T06:21:39.683232Z",
      "apogee_km": 948.2336559259656,
      "perigee_km": 939.9628982910599,
      "latitude_deg": -3.3599749957549175e-05,
      "longitude_deg": 160.17928486459266,
      "height_km": 950.5908610625218,
      "semi_major_axis_km": 7322.2352771085125,
      "eccentricity": 0.00056477,
      "inclination_deg": 80.999,
      "raan_deg": 83.2539,
      "arg_perigee_deg": 208.6058,
      "mean_anomaly_deg": 151.4789,
      "mean_motion_rev_day": 13.85597984
    },
    {
      "epoch": "2026-03-30T09:49:37.584192Z",
      "apogee_km": 948.235927738142,
      "perigee_km": 939.9603375912047,
      "latitude_deg": -7.270156459139991e-05,
      "longitude_deg": 107.90697787472931,
      "height_km": 950.6085778806266,
      "semi_major_axis_km": 7322.235132664673,
      "eccentricity": 0.0005651,
      "inclination_deg": 80.9991,
      "raan_deg": 83.1152,
      "arg_perigee_deg": 208.1463,
      "mean_anomaly_deg": 151.9388,
      "mean_motion_rev_day": 13.85598025
    },
    {
      "epoch": "2026-03-30T21:57:30.237120Z",
      "apogee_km": 948.2494072107393,
      "perigee_km": 939.9461394224936,
      "latitude_deg": 1.926328440273498e-05,
      "longitude_deg": -75.0460087286205,
      "height_km": 950.6702196143042,
      "semi_major_axis_km": 7322.234773316616,
      "eccentricity": 0.00056699,
      "inclination_deg": 80.9991,
      "raan_deg": 82.6298,
      "arg_perigee_deg": 206.6488,
      "mean_anomaly_deg": 153.4378,
      "mean_motion_rev_day": 13.85598127
    },
    {
      "epoch": "2026-03-31T17:01:18.684192Z",
      "apogee_km": 948.272396930206,
      "perigee_km": 939.9221209812922,
      "latitude_deg": -1.343104917830839e-05,
      "longitude_deg": -2.5436839672650766,
      "height_km": 950.7634673584682,
      "semi_major_axis_km": 7322.234258955748,
      "eccentricity": 0.0005702,
      "inclination_deg": 80.9993,
      "raan_deg": 81.8669,
      "arg_perigee_deg": 204.3222,
      "mean_anomaly_deg": 155.7666,
      "mean_motion_rev_day": 13.85598273
    }
  ]
}